NORAD_CAT_ID,OBJECT_NAME,OBJECT_TYPE,EPOCH,MEAN_MOTION,ECCENTRICITY,INCLINATION,RA_OF_ASC_NODE,ARG_OF_PERICENTER,MEAN_ANOMALY,BSTAR,MEAN_MOTION_DOT,MEAN_MOTION_DDOT,TLE_LINE0,TLE_LINE1,TLE_LINE2,SEMIMAJOR_AXIS,PERIOD,APOGEE,PERIGEE,DECAYED
52844.0,STARLINK-4208,PAYLOAD,2023-09-18 00:31:47,15.08852267,0.0001498,53.2164,130.8441,95.6808,264.4355,0.00017479,2.496e-05,0.0,0 STARLINK-4208,1 52844U 22062Q   23261.02208136  .00002496  00000-0  17479-3 0  9993,2 52844  53.2164 130.8441 0001498  95.6808 264.4355 15.08852267 69362,6917.843,95.437,540.744,538.672,0.0
52844.0,STARLINK-4208,PAYLOAD,2023-09-18 21:11:49,15.08843162,0.0001597,53.2163,126.9773,97.4199,262.6974,0.00017119,2.438e-05,0.0,0 STARLINK-4208,1 52844U 22062Q   23261.88320779  .00002438  00000-0  17119-3 0  9992,2 52844  53.2163 126.9773 0001597  97.4199 262.6974 15.08843162 69493,6917.871,95.437,540.841,538.631,0.0
52844.0,STARLINK-4208,PAYLOAD,2023-09-18 22:47:12,15.08847021,0.0001525,53.2168,126.6787,77.8628,282.2535,0.00026878,3.993e-05,0.0,0 STARLINK-4208,1 52844U 22062Q   23261.94944681  .00003993  00000-0  26878-3 0  9992,2 52844  53.2168 126.6787 0001525  77.8628 282.2535 15.08847021 69994,6917.859,95.437,540.779,538.669,0.0
52844.0,STARLINK-4208,PAYLOAD,2023-09-20 00:13:21,15.08861054,0.0001553,53.2159,121.9222,91.5381,268.5789,0.00048351,7.42e-05,0.0,0 STARLINK-4208,1 52844U 22062Q   23263.00927768  .00007420  00000-0  48351-3 0  9997,2 52844  53.2159 121.9222 0001553  91.5381 268.5789 15.08861054 70156,6917.816,95.436,540.755,538.607,0.0
52844.0,STARLINK-4208,PAYLOAD,2023-09-20 17:42:37,15.08826861,0.0001596,53.2166,118.6525,114.5802,245.5356,-0.00026402,-4.486e-05,0.0,0 STARLINK-4208,1 52844U 22062Q   23263.73792951 -.00004486  00000-0 -26402-3 0  9995,2 52844  53.2166 118.6525 0001596 114.5802 245.5356 15.08826861 70268,6917.921,95.438,540.89,538.681,0.0
52844.0,STARLINK-4208,PAYLOAD,2023-09-20 20:53:23,15.08826219,0.0001395,53.2161,118.0568,103.5708,256.5439,-0.00019698,-3.42e-05,0.0,0 STARLINK-4208,1 52844U 22062Q   23263.87041281 -.00003420  00000-0 -19698-3 0  9999,2 52844  53.2161 118.0568 0001395 103.5708 256.5439 15.08826219 69791,6917.923,95.438,540.753,538.822,0.0
52844.0,STARLINK-4208,PAYLOAD,2023-09-21 01:39:33,15.08826985,0.0001351,53.2158,117.164,104.9083,255.2059,-9.6959e-05,-1.83e-05,0.0,0 STARLINK-4208,1 52844U 22062Q   23264.06913450 -.00001830  00000-0 -96959-4 0  9996,2 52844  53.2158 117.1640 0001351 104.9083 255.2059 15.08826985 69829,6917.92,95.438,540.72,538.851,0.0
52844.0,STARLINK-4208,PAYLOAD,2023-09-21 17:33:24,15.08838857,0.0001241,53.2157,114.1904,106.2042,253.9087,0.00020585,2.99e-05,0.0,0 STARLINK-4208,1 52844U 22062Q   23264.73153562  .00002990  00000-0  20585-3 0  9997,2 52844  53.2157 114.1904 0001241 106.2042 253.9087 15.08838857 70410,6917.884,95.438,540.607,538.89,0.0
52844.0,STARLINK-4208,PAYLOAD,2023-09-22 01:30:20,15.08850097,0.0001204,53.2158,112.7036,100.5473,259.5654,0.00080524,0.00012554,0.0,0 STARLINK-4208,1 52844U 22062Q   23265.06273638  .00012554  00000-0  80524-3 0  9997,2 52844  53.2158 112.7036 0001204 100.5473 259.5654 15.08850097 70462,6917.85,95.437,540.547,538.882,0.0
52844.0,STARLINK-4208,PAYLOAD,2023-09-22 17:24:11,15.08845303,0.0001203,53.2159,109.7307,102.3853,257.7274,0.00041032,6.249e-05,0.0,0 STARLINK-4208,1 52844U 22062Q   23265.72513753  .00006249  00000-0  41032-3 0  9990,2 52844  53.2159 109.7307 0001203 102.3853 257.7274 15.08845303 70564,6917.864,95.437,540.561,538.897,0.0
52844.0,STARLINK-4208,PAYLOAD,2023-09-22 20:34:58,15.08846458,0.0001299,53.2178,109.1387,102.0825,258.0312,0.00039407,5.99e-05,0.0,0 STARLINK-4208,1 52844U 22062Q   23265.85761746  .00005990  00000-0  39407-3 0  9996,2 52844  53.2178 109.1387 0001299 102.0825 258.0312 15.08846458 70095,6917.861,95.437,540.624,538.827,0.0
52844.0,STARLINK-4208,PAYLOAD,2023-09-23 14:04:12,15.08838905,0.0001311,53.2184,105.8688,96.4918,263.6223,8.5876e-06,-1.51e-06,0.0,0 STARLINK-4208,1 52844U 22062Q   23266.58625738 -.00000151  00000-0  85876-5 0  9995,2 52844  53.2184 105.8688 0001311  96.4918 263.6223 15.08838905 70207,6917.884,95.438,540.656,538.842,0.0
52844.0,STARLINK-4208,PAYLOAD,2023-09-23 18:50:22,15.08841632,0.0001534,53.2177,104.9751,105.6312,254.4849,3.0858e-05,2.03e-06,0.0,0 STARLINK-4208,1 52844U 22062Q   23266.78497701  .00000203  00000-0  30858-4 0  9990,2 52844  53.2177 104.9751 0001534 105.6312 254.4849 15.08841632 70728,6917.875,95.437,540.802,538.679,0.0
52844.0,STARLINK-4208,PAYLOAD,2023-09-23 23:36:31,15.08844434,0.0001321,53.2167,104.0804,93.1581,266.9562,5.1344e-05,5.29e-06,0.0,0 STARLINK-4208,1 52844U 22062Q   23266.98369458  .00000529  00000-0  51344-4 0  9993,2 52844  53.2167 104.0804 0001321  93.1581 266.9562 15.08844434 70262,6917.867,95.437,540.646,538.818,0.0
52844.0,STARLINK-4208,PAYLOAD,2023-09-24 20:16:32,15.08844927,0.0001362,53.2174,100.2162,94.4314,265.6833,8.6565e-05,1.09e-05,0.0,0 STARLINK-4208,1 52844U 22062Q   23267.84481526  .00001090  00000-0  86565-4 0  9997,2 52844  53.2174 100.2162 0001362  94.4314 265.6833 15.08844927 70396,6917.865,95.437,540.673,538.788,0.0
52844.0,STARLINK-4208,PAYLOAD,2023-09-24 23:27:18,15.08847644,0.0001329,53.2171,99.6206,89.8564,270.2581,0.00012566,1.713e-05,0.0,0 STARLINK-4208,1 52844U 22062Q   23267.97729392  .00001713  00000-0  12566-3 0  9998,2 52844  53.2171  99.6206 0001329  89.8564 270.2581 15.08847644 70909,6917.857,95.437,540.641,538.803,0.0
52844.0,STARLINK-4208,PAYLOAD,2023-09-25 05:48:50,15.08842876,0.0001266,53.2165,98.4281,83.9611,276.1525,7.2823e-05,8.71e-06,0.0,0 STARLINK-4208,1 52844U 22062Q   23268.24225609  .00000871  00000-0  72823-4 0  9998,2 52844  53.2165  98.4281 0001266  83.9611 276.1525 15.08842876 70455,6917.872,95.437,540.612,538.861,0.0
52844.0,STARLINK-4208,PAYLOAD,2023-09-25 21:42:41,15.08853761,0.0001257,53.2162,95.455,88.2102,271.9034,0.00030494,4.57e-05,0.0,0 STARLINK-4208,1 52844U 22062Q   23268.90465068  .00004570  00000-0  30494-3 0  9993,2 52844  53.2162  95.4550 0001257  88.2102 271.9034 15.08853761 70555,6917.838,95.437,540.573,538.834,0.0
52844.0,STARLINK-4208,PAYLOAD,2023-09-26 18:22:43,15.08835356,0.0001594,53.2169,91.5846,87.267,272.8505,-2.9589e-05,-7.59e-06,0.0,0 STARLINK-4208,1 52844U 22062Q   23269.76578046 -.00000759  00000-0 -29589-4 0  9990,2 52844  53.2169  91.5846 0001594  87.2670 272.8505 15.08835356 71172,6917.895,95.438,540.862,538.657,0.0
52844.0,STARLINK-4208,PAYLOAD,2023-09-26 19:58:06,15.08838517,0.0001422,53.2164,91.2919,83.8929,276.2225,1.3663e-05,-7e-07,0.0,0 STARLINK-4208,1 52844U 22062Q   23269.83202070 -.00000070  00000-0  13663-4 0  9990,2 52844  53.2164  91.2919 0001422  83.8929 276.2225 15.08838517 70699,6917.885,95.438,540.734,538.766,0.0
52844.0,STARLINK-4208,PAYLOAD,2023-09-27 11:51:58,15.08834459,0.0001452,53.2165,88.3188,83.8976,276.2182,5.4884e-05,5.86e-06,0.0,0 STARLINK-4208,1 52844U 22062Q   23270.49442580  .00000586  00000-0  54884-4 0  9997,2 52844  53.2165  88.3188 0001452  83.8976 276.2182 15.08834459 70794,6917.897,95.438,540.767,538.758,0.0
52844.0,STARLINK-4208,PAYLOAD,2023-09-28 11:42:45,15.08843208,0.0001442,53.2161,83.8574,95.9753,264.1403,0.0002311,3.392e-05,0.0,0 STARLINK-4208,1 52844U 22062Q   23271.48802381  .00003392  00000-0  23110-3 0  9991,2 52844  53.2161  83.8574 0001442  95.9753 264.1403 15.08843208 71431,6917.871,95.437,540.733,538.738,0.0
52844.0,STARLINK-4208,PAYLOAD,2023-09-28 14:53:31,15.0884805,0.0001442,53.216,83.264,93.6864,266.4293,0.00028356,4.229e-05,0.0,0 STARLINK-4208,1 52844U 22062Q   23271.62050140  .00004229  00000-0  28356-3 0  9992,2 52844  53.2160  83.2640 0001442  93.6864 266.4293 15.08848050 70965,6917.856,95.437,540.718,538.723,0.0
52844.0,STARLINK-4208,PAYLOAD,2023-09-28 18:04:17,15.08851907,0.0001505,53.2165,82.6695,89.4048,270.7117,0.00033439,5.04e-05,0.0,0 STARLINK-4208,1 52844U 22062Q   23271.75297977  .00005040  00000-0  33439-3 0  9997,2 52844  53.2165  82.6695 0001505  89.4048 270.7117 15.08851907 70980,6917.844,95.437,540.75,538.668,0.0
52844.0,STARLINK-4208,PAYLOAD,2023-09-29 11:33:32,15.08845824,0.0001458,53.2164,79.398,85.5063,274.6096,0.0002122,3.091e-05,0.0,0 STARLINK-4208,1 52844U 22062Q   23272.48162224  .00003091  00000-0  21220-3 0  9993,2 52844  53.2164  79.3980 0001458  85.5063 274.6096 15.08845824 71587,6917.863,95.437,540.736,538.719,0.0
52844.0,STARLINK-4208,PAYLOAD,2023-09-29 14:44:18,15.08846954,0.0001532,53.2166,78.8031,98.7504,261.3661,0.00021207,3.089e-05,0.0,0 STARLINK-4208,1 52844U 22062Q   23272.61410097  .00003089  00000-0  21207-3 0  9994,2 52844  53.2166  78.8031 0001532  98.7504 261.3661 15.08846954 71114,6917.859,95.437,540.784,538.664,0.0
52844.0,STARLINK-4208,PAYLOAD,2023-09-29 22:41:13,15.08855398,0.0001351,53.2164,77.3152,103.0283,257.086,0.00030513,4.574e-05,0.0,0 STARLINK-4208,1 52844U 22062Q   23272.94529541  .00004574  00000-0  30513-3 0  9995,2 52844  53.2164  77.3152 0001351 103.0283 257.0860 15.08855398 71657,6917.833,95.437,540.633,538.764,0.0
52844.0,STARLINK-4208,PAYLOAD,2023-09-30 17:45:51,15.0884662,0.0001295,53.2164,73.7479,87.0028,273.1112,7.2036e-05,8.59e-06,0.0,0 STARLINK-4208,1 52844U 22062Q   23273.74017648  .00000859  00000-0  72036-4 0  9993,2 52844  53.2164  73.7479 0001295  87.0028 273.1112 15.08846620 71774,6917.86,95.437,540.621,538.829,0.0
52844.0,STARLINK-4208,PAYLOAD,2023-10-01 11:15:05,15.08840331,0.0001286,53.2165,70.4772,92.7038,267.4101,4.7068e-05,4.61e-06,0.0,0 STARLINK-4208,1 52844U 22062Q   23274.46881880  .00000461  00000-0  47068-4 0  9996,2 52844  53.2165  70.4772 0001286  92.7038 267.4101 15.08840331 71888,6917.879,95.438,540.634,538.855,0.0
52844.0,STARLINK-4208,PAYLOAD,2023-10-01 17:36:38,15.08848278,0.0001221,53.2165,69.2891,87.7115,272.4017,0.00013836,1.915e-05,0.0,0 STARLINK-4208,1 52844U 22062Q   23274.73377426  .00001915  00000-0  13836-3 0  9992,2 52844  53.2165  69.2891 0001221  87.7115 272.4017 15.08848278 71436,6917.855,95.437,540.565,538.875,0.0
